GLOBALSTAR M035         
1 25851U 99037A   24319.53614198 -.00000073  00000+0 -35904-3 0  9990
2 25851  51.9913 173.6581 0013883   0.0483   8.6961 11.04534969 72540
GLOBALSTAR M032         
1 25852U 99037B   24319.50837569 -.00000172  00000+0 -33747-2 0  9999
2 25852  51.9988  13.7237 0010949 166.9294 193.1791 11.19057357110751
GLOBALSTAR M051         
1 25853U 99037C   24319.12323747 -.00000078  00000+0 -14045-3 0  9992
2 25853  51.9777 199.7071 0001126 133.4276 226.6629 11.42199005107813
GLOBALSTAR M030         
1 25854U 99037D   24319.39099989 -.00000114  00000+0 -82228-3 0  9999
2 25854  51.9909  18.8223 0003697  27.8895 332.2119 11.55101182125225
GLOBALSTAR M048         
1 25872U 99041A   24319.44099865 -.00000051  00000+0  52444-3 0  9999
2 25872  51.9334 125.6688 0013691 167.7426 204.6273 11.33851996100629
GLOBALSTAR M026         
1 25873U 99041B   24319.41681729 -.00000056  00000+0  29172-3 0  9990
2 25873  52.0017 294.1393 0001103 270.8372 260.0323 11.06827736124708
GLOBALSTAR M043         
1 25874U 99041C   24319.13335831 -.00000037  00000+0  94102-3 0  9994
2 25874  51.9397 225.4760 0012741 309.1549 199.9007 11.25687268 98653
GLOBALSTAR M028         
1 25875U 99041D   24319.55559553 -.00000072  00000+0  18008-3 0  9990
2 25875  51.9609 113.0517 0062646 325.9395  33.7454 12.50570240163324
